ONEWEB-0461             
1 51649U 22012AD  25157.49692620  .00000014  00000+0  37866-5 0  9999
2 51649  87.9069  80.6474 0002044  76.4689 283.6670 13.17650742164419
ONEWEB-0463             
1 51650U 22012AE  25157.32649476  .00000096  00000+0  21308-3 0  9996
2 51650  87.9072  80.7439 0001936  77.1162 283.0186 13.17649875164174
ONEWEB-0464             
1 51651U 22012AF  25157.58308721 -.00000502  00000+0 -14739-2 0  9993
2 51651  87.8820 111.1812 0001956  91.3311 268.8040 13.10372401160138
ONEWEB-0468             
1 51652U 22012AG  25157.58972588 -.00000596  00000+0 -17425-2 0  9990
2 51652  87.8821 111.1715 0001997  82.2089 277.9265 13.10372881160118
ONEWEB-0473             
1 51653U 22012AH  25157.57479554 -.00000093  00000+0 -30378-3 0  9990
2 51653  87.8816 111.1780 0001907  81.6751 278.4592 13.10370707160119
ONEWEB-0474             
1 51654U 22012AJ  25157.79557849  .00000277  00000+0  75629-3 0  9999
2 51654  87.8808 111.0984 0001847  86.2350 273.8988 13.10370370161424
ONEWEB-0475             
1 51655U 22012AK  25157.79391133  .00000014  00000+0  21722-5 0  9998
2 51655  87.9072  80.6304 0001216  84.9897 275.1374 13.17651696165548
ONEWEB-0490             
1 54113U 22138A   25157.84145148  .00000026  00000+0  33189-4 0  9990
2 54113  87.9224  19.5689 0001762  90.8736 269.2599 13.19727675128196
